CCSDS_OMM_VERS = 2.0
CREATION_DATE  = 
ORIGINATOR     = 

OBJECT_NAME    = STARLINK-35041
OBJECT_ID      = 2025-243M
CENTER_NAME    = EARTH
REF_FRAME      = TEME
TIME_SYSTEM    = UTC
MEAN_ELEMENT_THEORY = SGP/SGP4

EPOCH          = 2025-11-06T17:24:01.238112
MEAN_MOTION    = 15.79488731
ECCENTRICITY   = .0001685
INCLINATION    = 53.1528
RA_OF_ASC_NODE = 100.9865
ARG_OF_PERICENTER = 50.3249
MEAN_ANOMALY   = 309.7921

EPHEMERIS_TYPE = 0
CLASSIFICATION_TYPE = U
NORAD_CAT_ID   = 66188
ELEMENT_SET_NO = 999
REV_AT_EPOCH   = 176
BSTAR          = -.30311E-2
MEAN_MOTION_DOT = -.52906E-2
MEAN_MOTION_DDOT = 0

CCSDS_OMM_VERS = 2.0
CREATION_DATE  = 
ORIGINATOR     = 

OBJECT_NAME    = STARLINK-34694
OBJECT_ID      = 2025-243N
CENTER_NAME    = EARTH
REF_FRAME      = TEME
TIME_SYSTEM    = UTC
MEAN_ELEMENT_THEORY = SGP/SGP4

EPOCH          = 2025-11-06T17:22:55.268256
MEAN_MOTION    = 15.79453501
ECCENTRICITY   = .000123
INCLINATION    = 53.1526
RA_OF_ASC_NODE = 100.9806
ARG_OF_PERICENTER = 38.1416
MEAN_ANOMALY   = 321.9693

EPHEMERIS_TYPE = 0
CLASSIFICATION_TYPE = U
NORAD_CAT_ID   = 66189
ELEMENT_SET_NO = 999
REV_AT_EPOCH   = 176
BSTAR          = -.31118E-2
MEAN_MOTION_DOT = -.541414E-2
MEAN_MOTION_DDOT = 0

CCSDS_OMM_VERS = 2.0
CREATION_DATE  = 
ORIGINATOR     = 

OBJECT_NAME    = STARLINK-34863
OBJECT_ID      = 2025-243P
CENTER_NAME    = EARTH
REF_FRAME      = TEME
TIME_SYSTEM    = UTC
MEAN_ELEMENT_THEORY = SGP/SGP4

EPOCH          = 2025-11-06T17:25:05.784096
MEAN_MOTION    = 15.79566025
ECCENTRICITY   = .000116
INCLINATION    = 53.1526
RA_OF_ASC_NODE = 100.9902
ARG_OF_PERICENTER = 20.8789
MEAN_ANOMALY   = 339.2280

EPHEMERIS_TYPE = 0
CLASSIFICATION_TYPE = U
NORAD_CAT_ID   = 66190
ELEMENT_SET_NO = 999
REV_AT_EPOCH   = 176
BSTAR          = -.25074E-2
MEAN_MOTION_DOT = -.443576E-2
MEAN_MOTION_DDOT = 0

CCSDS_OMM_VERS = 2.0
CREATION_DATE  = 
ORIGINATOR     = 

OBJECT_NAME    = STARLINK-35061
OBJECT_ID      = 2025-243Q
CENTER_NAME    = EARTH
REF_FRAME      = TEME
TIME_SYSTEM    = UTC
MEAN_ELEMENT_THEORY = SGP/SGP4

EPOCH          = 2025-11-06T17:19:35.006880
MEAN_MOTION    = 15.79308752
ECCENTRICITY   = .0002132
INCLINATION    = 53.1516
RA_OF_ASC_NODE = 100.9650
ARG_OF_PERICENTER = 30.7298
MEAN_ANOMALY   = 329.3849

EPHEMERIS_TYPE = 0
CLASSIFICATION_TYPE = U
NORAD_CAT_ID   = 66191
ELEMENT_SET_NO = 999
REV_AT_EPOCH   = 176
BSTAR          = -.32878E-2
MEAN_MOTION_DOT = -.566744E-2
MEAN_MOTION_DDOT = 0

CCSDS_OMM_VERS = 2.0
CREATION_DATE  = 
ORIGINATOR     = 

OBJECT_NAME    = STARLINK-34937
OBJECT_ID      = 2025-243R
CENTER_NAME    = EARTH
REF_FRAME      = TEME
TIME_SYSTEM    = UTC
MEAN_ELEMENT_THEORY = SGP/SGP4

EPOCH          = 2025-11-06T17:20:06.035712
MEAN_MOTION    = 15.79308982
ECCENTRICITY   = .0001677
INCLINATION    = 53.1523
RA_OF_ASC_NODE = 100.9674
ARG_OF_PERICENTER = 35.9418
MEAN_ANOMALY   = 324.1716

EPHEMERIS_TYPE = 0
CLASSIFICATION_TYPE = U
NORAD_CAT_ID   = 66192
ELEMENT_SET_NO = 999
REV_AT_EPOCH   = 176
BSTAR          = -.3294E-2
MEAN_MOTION_DOT = -.567671E-2
MEAN_MOTION_DDOT = 0

CCSDS_OMM_VERS = 2.0
CREATION_DATE  = 
ORIGINATOR     = 

OBJECT_NAME    = STARLINK-35197
OBJECT_ID      = 2025-243S
CENTER_NAME    = EARTH
REF_FRAME      = TEME
TIME_SYSTEM    = UTC
MEAN_ELEMENT_THEORY = SGP/SGP4

EPOCH          = 2025-11-06T15:49:32.044224
MEAN_MOTION    = 15.79562654
ECCENTRICITY   = .000137
INCLINATION    = 53.1523
RA_OF_ASC_NODE = 101.2856
ARG_OF_PERICENTER = 6.8977
MEAN_ANOMALY   = 353.2063

EPHEMERIS_TYPE = 0
CLASSIFICATION_TYPE = U
NORAD_CAT_ID   = 66193
ELEMENT_SET_NO = 999
REV_AT_EPOCH   = 175
BSTAR          = -.32466E-2
MEAN_MOTION_DOT = -.566085E-2
MEAN_MOTION_DDOT = 0

CCSDS_OMM_VERS = 2.0
CREATION_DATE  = 
ORIGINATOR     = 

OBJECT_NAME    = STARLINK-35374
OBJECT_ID      = 2025-243T
CENTER_NAME    = EARTH
REF_FRAME      = TEME
TIME_SYSTEM    = UTC
MEAN_ELEMENT_THEORY = SGP/SGP4

EPOCH          = 2025-11-06T17:21:14.302080
MEAN_MOTION    = 15.79365534
ECCENTRICITY   = .0001627
INCLINATION    = 53.1525
RA_OF_ASC_NODE = 100.9722
ARG_OF_PERICENTER = 43.3159
MEAN_ANOMALY   = 316.7991

EPHEMERIS_TYPE = 0
CLASSIFICATION_TYPE = U
NORAD_CAT_ID   = 66194
ELEMENT_SET_NO = 999
REV_AT_EPOCH   = 176
BSTAR          = -.33008E-2
MEAN_MOTION_DOT = -.570145E-2
MEAN_MOTION_DDOT = 0

CCSDS_OMM_VERS = 2.0
CREATION_DATE  = 
ORIGINATOR     = 

OBJECT_NAME    = STARLINK-34813
OBJECT_ID      = 2025-243U
CENTER_NAME    = EARTH
REF_FRAME      = TEME
TIME_SYSTEM    = UTC
MEAN_ELEMENT_THEORY = SGP/SGP4

EPOCH          = 2025-11-06T17:21:45.769824
MEAN_MOTION    = 15.79376694
ECCENTRICITY   = .0001712
INCLINATION    = 53.1525
RA_OF_ASC_NODE = 100.9750
ARG_OF_PERICENTER = 34.5728
MEAN_ANOMALY   = 325.5405

EPHEMERIS_TYPE = 0
CLASSIFICATION_TYPE = U
NORAD_CAT_ID   = 66195
ELEMENT_SET_NO = 999
REV_AT_EPOCH   = 176
BSTAR          = -.32072E-2
MEAN_MOTION_DOT = -.555232E-2
MEAN_MOTION_DDOT = 0

CCSDS_OMM_VERS = 2.0
CREATION_DATE  = 
ORIGINATOR     = 

OBJECT_NAME    = STARLINK-35409
OBJECT_ID      = 2025-243V
CENTER_NAME    = EARTH
REF_FRAME      = TEME
TIME_SYSTEM    = UTC
MEAN_ELEMENT_THEORY = SGP/SGP4

EPOCH          = 2025-11-06T17:22:20.081856
MEAN_MOTION    = 15.79403637
ECCENTRICITY   = .0001366
INCLINATION    = 53.1525
RA_OF_ASC_NODE = 100.9779
ARG_OF_PERICENTER = 38.7342
MEAN_ANOMALY   = 321.3778

EPHEMERIS_TYPE = 0
CLASSIFICATION_TYPE = U
NORAD_CAT_ID   = 66196
ELEMENT_SET_NO = 999
REV_AT_EPOCH   = 176
BSTAR          = -.32585E-2
MEAN_MOTION_DOT = -.564156E-2
MEAN_MOTION_DDOT = 0

CCSDS_OMM_VERS = 2.0
CREATION_DATE  = 
ORIGINATOR     = 

OBJECT_NAME    = STARLINK-35518
OBJECT_ID      = 2025-243X
CENTER_NAME    = EARTH
REF_FRAME      = TEME
TIME_SYSTEM    = UTC
MEAN_ELEMENT_THEORY = SGP/SGP4

EPOCH          = 2025-11-06T17:23:26.286720
MEAN_MOTION    = 15.79455041
ECCENTRICITY   = .0001832
INCLINATION    = 53.1525
RA_OF_ASC_NODE = 100.9828
ARG_OF_PERICENTER = 39.5172
MEAN_ANOMALY   = 320.5984

EPHEMERIS_TYPE = 0
CLASSIFICATION_TYPE = U
NORAD_CAT_ID   = 66197
ELEMENT_SET_NO = 999
REV_AT_EPOCH   = 176
BSTAR          = -.30375E-2
MEAN_MOTION_DOT = -.529367E-2
MEAN_MOTION_DDOT = 0

CCSDS_OMM_VERS = 2.0
CREATION_DATE  = 
ORIGINATOR     = 

OBJECT_NAME    = STARLINK-35259
OBJECT_ID      = 2025-243W
CENTER_NAME    = EARTH
REF_FRAME      = TEME
TIME_SYSTEM    = UTC
MEAN_ELEMENT_THEORY = SGP/SGP4

EPOCH          = 2025-11-06T18:43:50.547360
MEAN_MOTION    = 15.78958596
ECCENTRICITY   = .0000477
INCLINATION    = 53.1524
RA_OF_ASC_NODE = 100.6142
ARG_OF_PERICENTER = 168.9511
MEAN_ANOMALY   = 191.1522

EPHEMERIS_TYPE = 0
CLASSIFICATION_TYPE = U
NORAD_CAT_ID   = 66198
ELEMENT_SET_NO = 999
REV_AT_EPOCH   = 177
BSTAR          = -.35876E-2
MEAN_MOTION_DOT = -.60555E-2
MEAN_MOTION_DDOT = 0

CCSDS_OMM_VERS = 2.0
CREATION_DATE  = 
ORIGINATOR     = 

OBJECT_NAME    = STARLINK-35509
OBJECT_ID      = 2025-243Y
CENTER_NAME    = EARTH
REF_FRAME      = TEME
TIME_SYSTEM    = UTC
MEAN_ELEMENT_THEORY = SGP/SGP4

EPOCH          = 2025-11-06T17:12:11.342016
MEAN_MOTION    = 15.79150974
ECCENTRICITY   = .0002284
INCLINATION    = 53.1520
RA_OF_ASC_NODE = 100.9288
ARG_OF_PERICENTER = 27.9177
MEAN_ANOMALY   = 332.1967

EPHEMERIS_TYPE = 0
CLASSIFICATION_TYPE = U
NORAD_CAT_ID   = 66199
ELEMENT_SET_NO = 999
REV_AT_EPOCH   = 176
BSTAR          = -.36829E-2
MEAN_MOTION_DOT = -.625979E-2
MEAN_MOTION_DDOT = 0

